*******************************************************************************
Ephemeris / WWW_USER Mon Mar 10 07:01:34 2025 Pasadena, USA      / Horizons    
*******************************************************************************
Target body name: (2019 AU)                       {source: JPL#11}
Center body name: Earth (399)                     {source: DE441}
Center-site name: Mauna Kea
*******************************************************************************
Start time      : A.D. 2018-Oct-04 04:17:00.0000 UT      
Stop  time      : A.D. 2018-Oct-04 16:04:00.0000 UT      
Step-size       : 1 minutes
*******************************************************************************
Target pole/equ : undefined
Target radii    : undefined                                                    
Center geodetic : 204.5278, 19.8260847, 4.21024   {E-lon(deg),Lat(deg),Alt(km)}
Center cylindric: 204.5278, 6006.35451, 2151.0229 {E-lon(deg),Dxy(km),Dz(km)}
Center pole/equ : ITRF93                          {East-longitude positive}
Center radii    : 6378.137, 6378.137, 6356.752 km {Equator_a, b, pole_c}       
Target primary  : Sun
Vis. interferer : MOON (R_eq= 1737.400) km        {source: DE441}
Rel. light bend : Sun                             {source: DE441}
Rel. lght bnd GM: 1.3271E+11 km^3/s^2                                          
Small-body perts: Yes                             {source: SB441-N16}
Atmos refraction: NO (AIRLESS)
RA format       : HMS
Time format     : CAL 
Calendar mode   : Mixed Julian/Gregorian
RTS-only print  : NO       
EOP file        : eop.250307.p250603                                           
EOP coverage    : DATA-BASED 1962-JAN-20 TO 2025-MAR-07. PREDICTS-> 2025-JUN-02
Units conversion: 1 au= 149597870.700 km, c= 299792.458 km/s, 1 day= 86400.0 s 
Table cut-offs 1: Elevation (-90.0deg=NO ),Airmass (>38.000=NO), Daylight (YES)
Table cut-offs 2: Solar elongation (  0.0,180.0=NO ),Local Hour Angle( 0.0=NO )
Table cut-offs 3: RA/DEC angular rate (     0.0=NO )                           
*******************************************************************************
Initial IAU76/J2000 heliocentric ecliptic osculating elements (au, days, deg.):
  EPOCH=  2458490.5 ! 2019-Jan-07.00 (TDB)         Residual RMS= .17143        
   EC= .1028488096127525   QR= .9927870416208908   TP= 2458466.0562707144      
   OM= 109.6543146265929   W=  330.7265060973358   IN= 5.020660041219873       
  Equivalent ICRF heliocentric cartesian coordinates (au, au/d):
   X=-2.730606646751524E-01  Y= 8.866895536052930E-01  Z= 3.780071563225811E-01
  VX=-1.742089442644723E-02 VY=-4.449382429672076E-03 VZ=-2.237797348809624E-04
Asteroid physical parameters (km, seconds, rotational period in hours):        
   GM= n.a.                RAD= n.a.               ROTPER= n.a.                
   H= 26.7                 G= .150                 B-V= n.a.                   
                           ALBEDO= n.a.            STYP= n.a.                  
*******************************************************************************
 Date__(UT)__HR:MN     R.A._________(ICRF)_________DEC
******************************************************
$$SOE
 2018-Oct-04 08:23     02 00 05.871961 -53 45 21.14951
 2018-Oct-04 08:24     02 00 05.888397 -53 45 22.66816
 2018-Oct-04 08:25     02 00 05.904706 -53 45 24.18595
 2018-Oct-04 08:26     02 00 05.920890 -53 45 25.70288
 2018-Oct-04 08:27     02 00 05.936949 -53 45 27.21893
 2018-Oct-04 08:28     02 00 05.952883 -53 45 28.73411
 2018-Oct-04 08:29     02 00 05.968692 -53 45 30.24842
 2018-Oct-04 08:30     02 00 05.984379 -53 45 31.76184
 2018-Oct-04 08:31     02 00 05.999942 -53 45 33.27438
 2018-Oct-04 08:32     02 00 06.015383 -53 45 34.78603
 2018-Oct-04 08:33     02 00 06.030702 -53 45 36.29679
 2018-Oct-04 08:34     02 00 06.045899 -53 45 37.80665
 2018-Oct-04 08:35     02 00 06.060975 -53 45 39.31561
 2018-Oct-04 08:36     02 00 06.075931 -53 45 40.82367
 2018-Oct-04 08:37     02 00 06.090767 -53 45 42.33083
 2018-Oct-04 08:38     02 00 06.105484 -53 45 43.83707
 2018-Oct-04 08:39     02 00 06.120082 -53 45 45.34239
 2018-Oct-04 08:40     02 00 06.134561 -53 45 46.84680
 2018-Oct-04 08:41     02 00 06.148923 -53 45 48.35029
 2018-Oct-04 08:42     02 00 06.163168 -53 45 49.85285
 2018-Oct-04 08:43     02 00 06.177296 -53 45 51.35448
 2018-Oct-04 08:44     02 00 06.191308 -53 45 52.85518
 2018-Oct-04 08:45     02 00 06.205204 -53 45 54.35494
 2018-Oct-04 08:46     02 00 06.218986 -53 45 55.85376
 2018-Oct-04 08:47     02 00 06.232653 -53 45 57.35164
 2018-Oct-04 08:48     02 00 06.246206 -53 45 58.84857
 2018-Oct-04 08:49     02 00 06.259646 -53 46 00.34455
 2018-Oct-04 08:50     02 00 06.272973 -53 46 01.83958
 2018-Oct-04 08:51     02 00 06.286188 -53 46 03.33364
 2018-Oct-04 08:52     02 00 06.299292 -53 46 04.82675
 2018-Oct-04 08:53     02 00 06.312284 -53 46 06.31889
 2018-Oct-04 08:54     02 00 06.325166 -53 46 07.81007
 2018-Oct-04 08:55     02 00 06.337939 -53 46 09.30027
 2018-Oct-04 08:56     02 00 06.350601 -53 46 10.78950
 2018-Oct-04 08:57     02 00 06.363156 -53 46 12.27775
 2018-Oct-04 08:58     02 00 06.375602 -53 46 13.76501
 2018-Oct-04 08:59     02 00 06.387940 -53 46 15.25130
 2018-Oct-04 09:00     02 00 06.400172 -53 46 16.73659
 2018-Oct-04 09:01     02 00 06.412297 -53 46 18.22089
 2018-Oct-04 09:02     02 00 06.424316 -53 46 19.70420
 2018-Oct-04 09:03     02 00 06.436231 -53 46 21.18651
 2018-Oct-04 09:04     02 00 06.448040 -53 46 22.66782
 2018-Oct-04 09:05     02 00 06.459746 -53 46 24.14812
 2018-Oct-04 09:06     02 00 06.471348 -53 46 25.62742
 2018-Oct-04 09:07     02 00 06.482847 -53 46 27.10570
 2018-Oct-04 09:08     02 00 06.494244 -53 46 28.58297
 2018-Oct-04 09:09     02 00 06.505540 -53 46 30.05922
 2018-Oct-04 09:10     02 00 06.516735 -53 46 31.53445
 2018-Oct-04 09:11     02 00 06.527829 -53 46 33.00866
 2018-Oct-04 09:12     02 00 06.538823 -53 46 34.48184
 2018-Oct-04 09:13     02 00 06.549718 -53 46 35.95399
 2018-Oct-04 09:14     02 00 06.560515 -53 46 37.42511
 2018-Oct-04 09:15     02 00 06.571214 -53 46 38.89519
 2018-Oct-04 09:16     02 00 06.581815 -53 46 40.36424
 2018-Oct-04 09:17     02 00 06.592320 -53 46 41.83224
 2018-Oct-04 09:18     02 00 06.602729 -53 46 43.29919
 2018-Oct-04 09:19     02 00 06.613042 -53 46 44.76510
 2018-Oct-04 09:20     02 00 06.623260 -53 46 46.22995
 2018-Oct-04 09:21     02 00 06.633384 -53 46 47.69376
 2018-Oct-04 09:22     02 00 06.643415 -53 46 49.15650
 2018-Oct-04 09:23     02 00 06.653353 -53 46 50.61819
 2018-Oct-04 09:24     02 00 06.663198 -53 46 52.07881
 2018-Oct-04 09:25     02 00 06.672952 -53 46 53.53837
 2018-Oct-04 09:26     02 00 06.682614 -53 46 54.99686
 2018-Oct-04 09:27     02 00 06.692186 -53 46 56.45427
 2018-Oct-04 09:28     02 00 06.701669 -53 46 57.91062
 2018-Oct-04 09:29     02 00 06.711062 -53 46 59.36588
 2018-Oct-04 09:30     02 00 06.720367 -53 47 00.82007
 2018-Oct-04 09:31     02 00 06.729584 -53 47 02.27318
 2018-Oct-04 09:32     02 00 06.738713 -53 47 03.72520
 2018-Oct-04 09:33     02 00 06.747756 -53 47 05.17613
 2018-Oct-04 09:34     02 00 06.756714 -53 47 06.62597
 2018-Oct-04 09:35     02 00 06.765586 -53 47 08.07472
 2018-Oct-04 09:36     02 00 06.774373 -53 47 09.52237
 2018-Oct-04 09:37     02 00 06.783076 -53 47 10.96893
 2018-Oct-04 09:38     02 00 06.791697 -53 47 12.41439
 2018-Oct-04 09:39     02 00 06.800234 -53 47 13.85874
 2018-Oct-04 09:40     02 00 06.808690 -53 47 15.30198
 2018-Oct-04 09:41     02 00 06.817064 -53 47 16.74412
 2018-Oct-04 09:42     02 00 06.825357 -53 47 18.18514
 2018-Oct-04 09:43     02 00 06.833571 -53 47 19.62506
 2018-Oct-04 09:44     02 00 06.841705 -53 47 21.06385
 2018-Oct-04 09:45     02 00 06.849760 -53 47 22.50153
 2018-Oct-04 09:46     02 00 06.857738 -53 47 23.93809
 2018-Oct-04 09:47     02 00 06.865638 -53 47 25.37352
 2018-Oct-04 09:48     02 00 06.873462 -53 47 26.80783
 2018-Oct-04 09:49     02 00 06.881209 -53 47 28.24101
 2018-Oct-04 09:50     02 00 06.888882 -53 47 29.67306
 2018-Oct-04 09:51     02 00 06.896479 -53 47 31.10398
 2018-Oct-04 09:52     02 00 06.904003 -53 47 32.53376
 2018-Oct-04 09:53     02 00 06.911453 -53 47 33.96241
 2018-Oct-04 09:54     02 00 06.918831 -53 47 35.38991
 2018-Oct-04 09:55     02 00 06.926137 -53 47 36.81628
 2018-Oct-04 09:56     02 00 06.933372 -53 47 38.24150
 2018-Oct-04 09:57     02 00 06.940536 -53 47 39.66557
 2018-Oct-04 09:58     02 00 06.947630 -53 47 41.08850
 2018-Oct-04 09:59     02 00 06.954655 -53 47 42.51028
 2018-Oct-04 10:00     02 00 06.961611 -53 47 43.93090
 2018-Oct-04 10:01     02 00 06.968500 -53 47 45.35037
 2018-Oct-04 10:02     02 00 06.975322 -53 47 46.76868
 2018-Oct-04 10:03     02 00 06.982077 -53 47 48.18583
 2018-Oct-04 10:04     02 00 06.988766 -53 47 49.60182
 2018-Oct-04 10:05     02 00 06.995391 -53 47 51.01665
 2018-Oct-04 10:06     02 00 07.001951 -53 47 52.43032
 2018-Oct-04 10:07     02 00 07.008447 -53 47 53.84281
 2018-Oct-04 10:08     02 00 07.014881 -53 47 55.25414
 2018-Oct-04 10:09     02 00 07.021252 -53 47 56.66430
 2018-Oct-04 10:10     02 00 07.027561 -53 47 58.07328
 2018-Oct-04 10:11     02 00 07.033810 -53 47 59.48109
 2018-Oct-04 10:12     02 00 07.039999 -53 48 00.88773
 2018-Oct-04 10:13     02 00 07.046128 -53 48 02.29318
 2018-Oct-04 10:14     02 00 07.052199 -53 48 03.69746
 2018-Oct-04 10:15     02 00 07.058211 -53 48 05.10055
 2018-Oct-04 10:16     02 00 07.064166 -53 48 06.50246
 2018-Oct-04 10:17     02 00 07.070065 -53 48 07.90319
 2018-Oct-04 10:18     02 00 07.075907 -53 48 09.30273
 2018-Oct-04 10:19     02 00 07.081695 -53 48 10.70107
 2018-Oct-04 10:20     02 00 07.087428 -53 48 12.09823
 2018-Oct-04 10:21     02 00 07.093107 -53 48 13.49420
 2018-Oct-04 10:22     02 00 07.098733 -53 48 14.88897
 2018-Oct-04 10:23     02 00 07.104307 -53 48 16.28254
 2018-Oct-04 10:24     02 00 07.109829 -53 48 17.67492
 2018-Oct-04 10:25     02 00 07.115300 -53 48 19.06610
